start=new Date('2022-12-02T00:00:00.000Z').valueOf();
sats=[{"BSTAR":"-0.00010578000000","TIME_SYSTEM":"UTC","REF_FRAME":"TEME","MEAN_MOTION_DOT":"-0.00001857","EPHEMERIS_TYPE":"0","DECAY_DATE":null,"TLE_LINE2":"2 46364  53.0551 271.4280 0001522  70.9834 289.1320 15.06398715125276","NORAD_CAT_ID":"46364","EPOCH":"2022-12-01T20:38:35.415168","SITE":"AFETR","ARG_OF_PERICENTER":"70.9834","PERIAPSIS":"546.163","PERIOD":"95.592","FILE":"3678231","REV_AT_EPOCH":"12527","OBJECT_NAME":"STARLINK-1763","CLASSIFICATION_TYPE":"U","INCLINATION":"53.0551","MEAN_ELEMENT_THEORY":"SGP4","SEMIMAJOR_AXIS":"6925.352","MEAN_MOTION_DDOT":"0.0000000000000","COUNTRY_CODE":"US","ELEMENT_SET_NO":"999","RCS_SIZE":"LARGE","TLE_LINE1":"1 46364U 20062AR  22335.86013212 -.00001857  00000-0 -10578-3 0  9998","MEAN_ANOMALY":"289.1320","MEAN_MOTION":"15.06398715","OBJECT_TYPE":"PAYLOAD","OBJECT_ID":"2020-062AR","ECCENTRICITY":"0.00015220","CENTER_NAME":"EARTH","RA_OF_ASC_NODE":"271.4280","APOAPSIS":"548.272","LAUNCH_DATE":"2020-09-03","GP_ID":"219303071"},{"ARG_OF_PERICENTER":"50.8419","PERIAPSIS":"545.930","SITE":"AFETR","NORAD_CAT_ID":"46365","EPOCH":"2022-12-01T07:19:42.157920","TLE_LINE2":"2 46365  53.0563 293.4216 0001898  50.8419 309.2739 15.06389907124916","INCLINATION":"53.0563","CLASSIFICATION_TYPE":"U","FILE":"3677495","OBJECT_NAME":"STARLINK-1550","PERIOD":"95.593","REV_AT_EPOCH":"12491","BSTAR":"0.00003098200000","DECAY_DATE":null,"EPHEMERIS_TYPE":"0","MEAN_MOTION_DOT":"0.00000180","REF_FRAME":"TEME","TIME_SYSTEM":"UTC","OBJECT_ID":"2020-062AS","OBJECT_TYPE":"PAYLOAD","MEAN_MOTION":"15.06389907","MEAN_ANOMALY":"309.2739","GP_ID":"219263778","LAUNCH_DATE":"2020-09-03","APOAPSIS":"548.559","RA_OF_ASC_NODE":"293.4216","ECCENTRICITY":"0.00018980","CENTER_NAME":"EARTH","SEMIMAJOR_AXIS":"6925.379","MEAN_ELEMENT_THEORY":"SGP4","TLE_LINE1":"1 46365U 20062AS  22335.30534905  .00000180  00000-0  30982-4 0  9993","RCS_SIZE":"LARGE","ELEMENT_SET_NO":"999","COUNTRY_CODE":"US","MEAN_MOTION_DDOT":"0.0000000000000"},{"SITE":"AFETR","PERIAPSIS":"545.972","ARG_OF_PERICENTER":"61.5067","TLE_LINE2":"2 46366  53.0547 291.0966 0001759  61.5067 298.6099 15.06407516124994","NORAD_CAT_ID":"46366","EPOCH":"2022-12-01T19:48:05.365440","INCLINATION":"53.0547","FILE":"3678231","REV_AT_EPOCH":"12499","PERIOD":"95.592","OBJECT_NAME":"STARLINK-1651","CLASSIFICATION_TYPE":"U","BSTAR":"0.00044971000000","MEAN_MOTION_DOT":"0.00006424","EPHEMERIS_TYPE":"0","DECAY_DATE":null,"TIME_SYSTEM":"UTC","REF_FRAME":"TEME","OBJECT_TYPE":"PAYLOAD","OBJECT_ID":"2020-062AT","MEAN_MOTION":"15.06407516","MEAN_ANOMALY":"298.6099","GP_ID":"219301576","ECCENTRICITY":"0.00017590","CENTER_NAME":"EARTH","APOAPSIS":"548.409","RA_OF_ASC_NODE":"291.0966","LAUNCH_DATE":"2020-09-03","SEMIMAJOR_AXIS":"6925.326","MEAN_ELEMENT_THEORY":"SGP4","RCS_SIZE":"LARGE","TLE_LINE1":"1 46366U 20062AT  22335.82506210  .00006424  00000-0  44971-3 0  9998","MEAN_MOTION_DDOT":"0.0000000000000","COUNTRY_CODE":"US","ELEMENT_SET_NO":"999"},{"TIME_SYSTEM":"UTC","REF_FRAME":"TEME","MEAN_MOTION_DOT":"0.00000776","EPHEMERIS_TYPE":"0","DECAY_DATE":null,"BSTAR":"0.00007098500000","FILE":"3678231","OBJECT_NAME":"STARLINK-1658","PERIOD":"95.592","REV_AT_EPOCH":"12463","CLASSIFICATION_TYPE":"U","INCLINATION":"53.0570","TLE_LINE2":"2 46368  53.0570 316.6702 0002306  48.8971 311.2216 15.06408973124637","EPOCH":"2022-12-01T16:34:58.246752","NORAD_CAT_ID":"46368","SITE":"AFETR","ARG_OF_PERICENTER":"48.8971","PERIAPSIS":"545.589","MEAN_MOTION_DDOT":"0.0000000000000","COUNTRY_CODE":"US","ELEMENT_SET_NO":"999","RCS_SIZE":"LARGE","TLE_LINE1":"1 46368U 20062AV  22335.69095193  .00000776  00000-0  70985-4 0  9997","MEAN_ELEMENT_THEORY":"SGP4","SEMIMAJOR_AXIS":"6925.321","ECCENTRICITY":"0.00023060","CENTER_NAME":"EARTH","RA_OF_ASC_NODE":"316.6702","APOAPSIS":"548.783","LAUNCH_DATE":"2020-09-03","GP_ID":"219302326","MEAN_ANOMALY":"311.2216","MEAN_MOTION":"15.06408973","OBJECT_TYPE":"PAYLOAD","OBJECT_ID":"2020-062AV"},{"LAUNCH_DATE":"2020-09-03","RA_OF_ASC_NODE":"317.7400","APOAPSIS":"548.643","CENTER_NAME":"EARTH","ECCENTRICITY":"0.00020450","GP_ID":"219272243","MEAN_ANOMALY":"310.3081","MEAN_MOTION":"15.06395601","OBJECT_ID":"2020-062AX","OBJECT_TYPE":"PAYLOAD","ELEMENT_SET_NO":"999","COUNTRY_CODE":"US","MEAN_MOTION_DDOT":"0.0000000000000","TLE_LINE1":"1 46370U 20062AX  22335.45600488  .00000013  00000-0  19785-4 0  9998","RCS_SIZE":"LARGE","MEAN_ELEMENT_THEORY":"SGP4","SEMIMAJOR_AXIS":"6925.362","CLASSIFICATION_TYPE":"U","FILE":"3677619","REV_AT_EPOCH":"12477","PERIOD":"95.592","OBJECT_NAME":"STARLINK-1670","INCLINATION":"53.0548","NORAD_CAT_ID":"46370","EPOCH":"2022-12-01T10:56:38.821632","TLE_LINE2":"2 46370  53.0548 317.7400 0002045  49.8086 310.3081 15.06395601124778","PERIAPSIS":"545.811","ARG_OF_PERICENTER":"49.8086","SITE":"AFETR","REF_FRAME":"TEME","TIME_SYSTEM":"UTC","EPHEMERIS_TYPE":"0","DECAY_DATE":null,"MEAN_MOTION_DOT":"0.00000013","BSTAR":"0.00001978500000"},{"GP_ID":"219301828","ECCENTRICITY":"0.00017360","CENTER_NAME":"EARTH","APOAPSIS":"548.427","RA_OF_ASC_NODE":"316.8957","LAUNCH_DATE":"2020-09-03","OBJECT_TYPE":"PAYLOAD","OBJECT_ID":"2020-062AY","MEAN_ANOMALY":"290.4036","MEAN_MOTION":"15.06396353","RCS_SIZE":"LARGE","TLE_LINE1":"1 46371U 20062AY  22335.64767603 -.00000429  00000-0 -99178-5 0  9991","COUNTRY_CODE":"US","MEAN_MOTION_DDOT":"0.0000000000000","ELEMENT_SET_NO":"999","SEMIMAJOR_AXIS":"6925.360","MEAN_ELEMENT_THEORY":"SGP4","INCLINATION":"53.0554","FILE":"3678231","OBJECT_NAME":"STARLINK-1688","PERIOD":"95.592","REV_AT_EPOCH":"12462","CLASSIFICATION_TYPE":"U","SITE":"AFETR","PERIAPSIS":"546.022","ARG_OF_PERICENTER":"69.7140","TLE_LINE2":"2 46371  53.0554 316.8957 0001736  69.7140 290.4036 15.06396353124628","NORAD_CAT_ID":"46371","EPOCH":"2022-12-01T15:32:39.208992","MEAN_MOTION_DOT":"-0.00000429","DECAY_DATE":null,"EPHEMERIS_TYPE":"0","TIME_SYSTEM":"UTC","REF_FRAME":"TEME","BSTAR":"-0.00000991780000"},{"OBJECT_ID":"2020-062AZ","OBJECT_TYPE":"PAYLOAD","MEAN_MOTION":"15.06401753","MEAN_ANOMALY":"304.1579","GP_ID":"219272989","CENTER_NAME":"EARTH","ECCENTRICITY":"0.00017240","LAUNCH_DATE":"2020-09-03","RA_OF_ASC_NODE":"336.5400","APOAPSIS":"548.402","SEMIMAJOR_AXIS":"6925.343","MEAN_ELEMENT_THEORY":"SGP4","RCS_SIZE":"LARGE","TLE_LINE1":"1 46372U 20062AZ  22335.72323193  .00002235  00000-0  16886-3 0  9991","ELEMENT_SET_NO":"999","COUNTRY_CODE":"US","MEAN_MOTION_DDOT":"0.0000000000000","SITE":"AFETR","ARG_OF_PERICENTER":"55.9574","PERIAPSIS":"546.014","TLE_LINE2":"2 46372  53.0565 336.5400 0001724  55.9574 304.1579 15.06401753124534","NORAD_CAT_ID":"46372","EPOCH":"2022-12-01T17:21:27.238752","INCLINATION":"53.0565","CLASSIFICATION_TYPE":"U","OBJECT_NAME":"STARLINK-1689","FILE":"3677623","PERIOD":"95.592","REV_AT_EPOCH":"12453","BSTAR":"0.00016886000000","MEAN_MOTION_DOT":"0.00002235","DECAY_DATE":null,"EPHEMERIS_TYPE":"0","REF_FRAME":"TEME","TIME_SYSTEM":"UTC"},{"ELEMENT_SET_NO":"999","MEAN_MOTION_DDOT":"0.0000000000000","COUNTRY_CODE":"US","TLE_LINE1":"1 46374U 20062BB  22335.53801535  .00001276  00000-0  10450-3 0  9998","RCS_SIZE":"LARGE","MEAN_ELEMENT_THEORY":"SGP4","SEMIMAJOR_AXIS":"6925.334","LAUNCH_DATE":"2020-09-03","APOAPSIS":"548.306","RA_OF_ASC_NODE":"267.3734","CENTER_NAME":"EARTH","ECCENTRICITY":"0.00015990","GP_ID":"219273388","MEAN_MOTION":"15.06404756","MEAN_ANOMALY":"290.4412","OBJECT_ID":"2020-062BB","OBJECT_TYPE":"PAYLOAD","REF_FRAME":"TEME","TIME_SYSTEM":"UTC","DECAY_DATE":null,"EPHEMERIS_TYPE":"0","MEAN_MOTION_DOT":"0.00001276","BSTAR":"0.00010450000000","CLASSIFICATION_TYPE":"U","OBJECT_NAME":"STARLINK-1711","FILE":"3677626","PERIOD":"95.592","REV_AT_EPOCH":"12547","INCLINATION":"53.0549","NORAD_CAT_ID":"46374","EPOCH":"2022-12-01T12:54:44.526240","TLE_LINE2":"2 46374  53.0549 267.3734 0001599  69.6749 290.4412 15.06404756125478","PERIAPSIS":"546.092","ARG_OF_PERICENTER":"69.6749","SITE":"AFETR"},{"MEAN_ANOMALY":"306.3623","MEAN_MOTION":"15.06398626","OBJECT_ID":"2020-062BC","OBJECT_TYPE":"PAYLOAD","ECCENTRICITY":"0.00021020","CENTER_NAME":"EARTH","LAUNCH_DATE":"2020-09-03","APOAPSIS":"548.673","RA_OF_ASC_NODE":"293.4924","GP_ID":"219263529","MEAN_ELEMENT_THEORY":"SGP4","SEMIMAJOR_AXIS":"6925.353","ELEMENT_SET_NO":"999","MEAN_MOTION_DDOT":"0.0000000000000","COUNTRY_CODE":"US","RCS_SIZE":"LARGE","TLE_LINE1":"1 46375U 20062BC  22335.28691441  .00000743  00000-0  68766-4 0  9996","TLE_LINE2":"2 46375  53.0552 293.4924 0002102  53.7560 306.3623 15.06398626124917","NORAD_CAT_ID":"46375","EPOCH":"2022-12-01T06:53:09.405024","SITE":"AFETR","PERIAPSIS":"545.762","ARG_OF_PERICENTER":"53.7560","CLASSIFICATION_TYPE":"U","OBJECT_NAME":"STARLINK-1724","FILE":"3677495","PERIOD":"95.592","REV_AT_EPOCH":"12491","INCLINATION":"53.0552","BSTAR":"0.00006876600000","REF_FRAME":"TEME","TIME_SYSTEM":"UTC","MEAN_MOTION_DOT":"0.00000743","EPHEMERIS_TYPE":"0","DECAY_DATE":null},{"PERIAPSIS":"545.938","ARG_OF_PERICENTER":"64.4206","SITE":"AFETR","NORAD_CAT_ID":"46376","EPOCH":"2022-12-01T08:49:55.410816","TLE_LINE2":"2 46376  53.0545 293.1442 0001816  64.4206 295.6971 15.06406006125109","INCLINATION":"53.0545","CLASSIFICATION_TYPE":"U","OBJECT_NAME":"STARLINK-1742","FILE":"3677637","PERIOD":"95.592","REV_AT_EPOCH":"12510","BSTAR":"0.00025621000000","DECAY_DATE":null,"EPHEMERIS_TYPE":"0","MEAN_MOTION_DOT":"0.00003537","REF_FRAME":"TEME","TIME_SYSTEM":"UTC","OBJECT_ID":"2020-062BD","OBJECT_TYPE":"PAYLOAD","MEAN_ANOMALY":"295.6971","MEAN_MOTION":"15.06406006","GP_ID":"219273217","LAUNCH_DATE":"2020-09-03","RA_OF_ASC_NODE":"293.1442","APOAPSIS":"548.453","ECCENTRICITY":"0.00018160","CENTER_NAME":"EARTH","SEMIMAJOR_AXIS":"6925.330","MEAN_ELEMENT_THEORY":"SGP4","TLE_LINE1":"1 46376U 20062BD  22335.36800244  .00003537  00000-0  25621-3 0  9995","RCS_SIZE":"LARGE","ELEMENT_SET_NO":"999","COUNTRY_CODE":"US","MEAN_MOTION_DDOT":"0.0000000000000"}];
